CCSDS_OMM_VERS                     =2.0
COMMENT                            =GENERATED VIA SPACE-TRACK.ORG API
COMMENT                            =Test second comment line
CREATION_DATE                      =2020-12-29T06:26:10
ORIGINATOR                         =18 SPCS
OBJECT_NAME                        =NUSAT-8 (MARIE)
OBJECT_ID                          =2020-003C
CENTER_NAME                        =EARTH
REF_FRAME                          =TEME
TIME_SYSTEM                        =UTC
MEAN_ELEMENT_THEORY                =SGP4
EPOCH                              =2020-12-29T03:57:59.406624
MEAN_MOTION                        =15.27989249
ECCENTRICITY                       =0.00133560
INCLINATION                        =97.2970
RA_OF_ASC_NODE                     =66.4161
ARG_OF_PERICENTER                  =110.6345
MEAN_ANOMALY                       =334.7107
EPHEMERIS_TYPE                     =0
CLASSIFICATION_TYPE                =U
NORAD_CAT_ID                       =45018
ELEMENT_SET_NO                     =999
REV_AT_EPOCH                       =5327
BSTAR                              =0.00008455300000
MEAN_MOTION_DOT                    =0.00002241
MEAN_MOTION_DDOT                   =0.0000000000000
USER_DEFINED_SEMIMAJOR_AXIS        =6859.961
USER_DEFINED_PERIOD                =94.242
USER_DEFINED_APOAPSIS              =490.988
USER_DEFINED_PERIAPSIS             =472.664
USER_DEFINED_OBJECT_TYPE           =PAYLOAD
USER_DEFINED_RCS_SIZE              =MEDIUM
USER_DEFINED_COUNTRY_CODE          =ARGN
USER_DEFINED_LAUNCH_DATE           =2020-01-15
USER_DEFINED_SITE                  =TSC
USER_DEFINED_DECAY_DATE            =
USER_DEFINED_FILE                  =2911831
USER_DEFINED_GP_ID                 =168552672